NIMIQ 2                 
1 27632U 02062A   26199.58420889 -.00000080  00000+0  00000+0 0  9998
2 27632   9.5166  56.5634 0005401  56.5462 284.3731  1.00271870 44491
ANIK F2                 
1 28378U 04027A   26199.58513499 -.00000058  00000+0  00000+0 0  9994
2 28378   3.3670  79.0267 0003649  33.7022 283.1726  1.00271717 41571
ANIK F1R                
1 28868U 05036A   26199.58308632 -.00000084  00000+0  00000+0 0  9999
2 28868   4.3912  76.1883 0003924  20.5410 302.2521  1.00271896 46768
ANIK F3                 
1 31102U 07009A   26199.74134383 -.00000008  00000+0  00000+0 0  9990
2 31102   1.2774  83.4751 0002598  33.4112 327.8098  1.00272175 46884
NIMIQ 4                 
1 33373U 08044A   26199.57753144 -.00000227  00000+0  00000+0 0  9998
2 33373   0.0162  50.1472 0001854  56.8411 315.2989  1.00270887 65294
TELSTAR 11N             
1 34111U 09009A   26199.68618059 -.00000258  00000+0  00000+0 0  9992
2 34111   0.0133 357.0291 0002329 110.9870  37.9348  1.00272329 46569
TERRESTAR-1             
1 35496U 09035A   26199.58308632 -.00000066  00000+0  00000+0 0  9997
2 35496   5.1963  48.7656 0002468  63.7060 282.8362  1.00273029 62442
NIMIQ 5                 
1 35873U 09050A   26199.63802264 -.00000264  00000+0  00000+0 0  9999
2 35873   0.0447 244.0687 0002932 225.5967 343.7515  1.00272823 61668
SKYTERRA 1              
1 37218U 10061A   26199.58308632 -.00000127  00000+0  00000+0 0  9990
2 37218   5.1903  50.8040 0002631  26.5848 327.5674  1.00271858 57506
TELSTAR 14R             
1 37602U 11021A   26199.53540529 -.00000080  00000+0  00000+0 0  9990
2 37602   0.0921  84.7377 0008085 293.3412  32.0505  0.98982458 56147
NIMIQ 6                 
1 38342U 12026A   26199.57753144 -.00000181  00000+0  00000+0 0  9993
2 38342   0.0622 264.5021 0002822 216.8868 291.7989  1.00271427 50728
ANIK G1                 
1 39127U 13014A   26199.58308632 -.00000081  00000+0  00000+0 0  9991
2 39127   0.0404 239.5218 0001821 245.8688 273.5950  1.00271916 48566
TELSTAR 12V             
1 41036U 15068A   26199.76225269 -.00000126  00000+0  00000+0 0  9998
2 41036   0.0142  68.3862 0002232  44.3948  83.1809  1.00271233 38949
VIASAT-2                
1 42740U 17029A   26199.75096389 -.00000272  00000+0  00000+0 0  9990
2 42740   0.0215 300.2674 0000376 228.3229 328.3965  1.00269288 33528
LEO 1 (LEO VANTAGE 1)   
1 43113U 18004C   26199.74066816  .00002241  00000+0  15927-3 0  9995
2 43113  99.2408 122.1527 0349090 342.7893  16.1707 14.68042781442112
TELSTAR 19V             
1 43562U 18059A   26199.81919752 -.00000286  00000+0  00000+0 0  9997
2 43562   0.0273 150.7195 0003001 338.8873  38.9085  1.00270159 29465
TELSTAR 18V             
1 43611U 18069A   26199.43580450 -.00000301  00000+0  00000+0 0  9998
2 43611   0.0319 269.6832 0001767 203.6622 117.7837  1.00271743 28951
AMOS-17                 
1 44479U 19050A   26199.55438536  .00000103  00000+0  00000+0 0  9991
2 44479   0.0174 358.4035 0001589 128.9330  25.6248  1.00275273 25505
